52868,STARLINK-4261,2022,95.44,260.0,+,53.22,Active,1,LEO,USA,USA,Commercial,Communications,Falcon,1 52868U 22062AQ  25275.01405705  .00001979  00000+0  14241-3 0  9994,2 52868  53.2187  16.4742 0001132  83.6302 276.4819 15.08839944181974,15.08839944,0.0001132,LEO
52869,STARLINK-4266,2022,95.44,260.0,+,53.22,Active,1,LEO,USA,USA,Commercial,Communications,Falcon,1 52869U 22062AR  25274.99657472  .00000995  00000+0  80569-4 0  9995,2 52869  53.2194   6.5243 0001390  91.8711 268.2440 15.08840670182103,15.0884067,0.000139,LEO
52870,STARLINK-4195,2022,95.44,260.0,+,53.22,Active,1,LEO,USA,USA,Commercial,Communications,Falcon,1 52870U 22062AS  25275.00669757 -.00001362  00000+0 -67492-4 0  9990,2 52870  53.2179  16.4809 0001758  85.4811 274.6381 15.08829684181975,15.08829684,0.0001758,LEO
52871,STARLINK-4207,2022,95.44,260.0,+,53.22,Active,1,LEO,USA,USA,Commercial,Communications,Falcon,1 52871U 22062AT  25274.98554087 -.00000980  00000+0 -43506-4 0  9991,2 52871  53.2199   6.5759 0001677  80.5346 279.5835 15.08834662182107,15.08834662,0.0001677,LEO
52872,STARLINK-4213,2022,95.44,260.0,+,53.22,Active,1,LEO,USA,USA,Commercial,Communications,Falcon,1 52872U 22062AU  25274.99017888 -.00000943  00000+0 -41187-4 0  9998,2 52872  53.2198   6.5228 0001643 107.3901 252.7271 15.08828751182105,15.08828751,0.0001643,LEO
52873,STARLINK-4211,2022,95.44,260.0,+,53.22,Active,1,LEO,USA,USA,Commercial,Communications,Falcon,1 52873U 22062AV  25274.97817794  .00000822  00000+0  69739-4 0  9998,2 52873  53.2190   6.6028 0001440  90.3261 269.7896 15.08839954182100,15.08839954,0.000144,LEO
52874,STARLINK-4210,2022,90.21,260.0,P,53.21,Active,1,LEO,USA,USA,Commercial,Communications,Falcon,1 52874U 22062AW  25274.65365280  .00732178  24448-3  16827-2 0  9992,2 52874  53.2145 339.6287 0003595   8.6549 351.4543 15.96749144182455,15.96749144,0.0003595,LEO
52875,STARLINK-4193,2022,95.44,260.0,+,53.22,Active,1,LEO,USA,USA,Commercial,Communications,Falcon,1 52875U 22062AX  25274.97449647  .00001087  00000+0  86342-4 0  9991,2 52875  53.2185   6.6240 0001300  99.2329 260.8811 15.08842680182109,15.0884268,0.00013,LEO
52876,STARLINK-4200,2022,95.44,260.0,+,53.22,Active,1,LEO,USA,USA,Commercial,Communications,Falcon,1 52876U 22062AY  25274.98185193  .00000680  00000+0  60840-4 0  9999,2 52876  53.2172   6.5919 0001505  85.2139 274.9025 15.08808769182102,15.08808769,0.0001505,LEO
52877,STARLINK-4214,2022,95.44,260.0,+,53.22,Active,1,LEO,USA,USA,Commercial,Communications,Falcon,1 52877U 22062AZ  25274.94873735 -.00003917  00000+0 -22819-3 0  9993,2 52877  53.2177   6.7430 0002146  94.8949 265.2289 15.08825872182104,15.08825872,0.0002146,LEO
52878,STARLINK-4171,2022,95.44,260.0,+,53.22,Active,1,LEO,USA,USA,Commercial,Communications,Falcon,1 52878U 22062BA  25274.97081786  .00000983  00000+0  79833-4 0  9991,2 52878  53.2173   6.6391 0001542  84.3935 275.7233 15.08833412182108,15.08833412,0.0001542,LEO
52879,STARLINK-4139,2022,95.44,260.0,+,53.22,Active,1,LEO,USA,USA,Commercial,Communications,Falcon,1 52879U 22062BB  25274.54025171 -.00000451  00000+0 -10246-4 0  9996,2 52879  53.2192   8.5709 0001613 102.7805 257.3367 15.08838860182043,15.0883886,0.0001613,LEO
52880,STARLINK-4186,2022,95.44,260.0,+,53.22,Active,1,LEO,USA,USA,Commercial,Communications,Falcon,1 52880U 22062BC  25274.54393242 -.00000747  00000+0 -28871-4 0  9996,2 52880  53.2195   8.5527 0001540 100.1150 260.0016 15.08837808182043,15.08837808,0.000154,LEO
52882,STARLINK-4181,2022,95.44,260.0,+,53.22,Active,1,LEO,USA,USA,Commercial,Communications,Falcon,1 52882U 22062BE  25274.95972769 -.00001817  00000+0 -96134-4 0  9996,2 52882  53.2187   6.2614 0001437  85.5210 274.5946 15.08830437182117,15.08830437,0.0001437,LEO
52888,GLOBALSTAR M087,2022,114.08,715.0,+,52.0,Active,1,LEO,USA,USA,Commercial,Communications,Falcon,1 52888U 22064A   25275.02272134 -.00000087  00000+0  93420-4 0  9994,2 52888  51.9976 128.4240 0000996  89.1060 270.9921 12.62289079158537,12.62289079,9.96e-05,LEO
52894,PVSAT,2022,98.68,163.0,+,98.19,Active,1,LEO,Republic of Korea,South Korea,Government,Technology Development,Nuri,1 52894U 22065A   25274.99721648  .00001097  00000+0  24185-3 0  9998,2 52894  98.1925  52.1794 0010594 101.1873 259.0518 14.59273907174696,14.59273907,0.0010594,LEO
52895,KSLV-II DUMMY,2022,98.72,-1.0,+,98.2,Active,0,LEO,Republic of Korea,South Korea,Unknown,Unknown,Unknown,1 52895U 22065B   25275.11475830  .00000249  00000+0  63293-4 0  9995,2 52895  98.1975  52.9019 0009436 115.6670 244.5505 14.58623752174734,14.58623752,0.0009436,LEO
52897,STEP CUBE LAB-II,2022,98.45,10.0,+,98.19,Active,1,LEO,Republic of Korea,South Korea,Civil,Earth Observation,Nuri,1 52897U 22065D   25275.22718241  .00005034  00000+0  99822-3 0  9998,2 52897  98.1872  55.6026 0009814 111.2320 248.9931 14.62634597173783,14.62634597,0.0009814,LEO
52898,RANDEV,2022,98.43,4.0,+,98.19,Active,1,LEO,Republic of Korea,South Korea,Civil,Earth Observation,Nuri,1 52898U 22065E   25275.15610803  .00003200  00000+0  63367-3 0  9994,2 52898  98.1860  55.7751 0009124 112.1712 248.0458 14.62960247173516,14.62960247,0.0009124,LEO
52899,SNUGLITE-II,2022,98.39,4.0,+,98.19,Active,1,LEO,Republic of Korea,South Korea,Civil,Technology Development,Nuri,1 52899U 22065F   25275.15940565  .00003593  00000+0  70158-3 0  9997,2 52899  98.1850  56.1429 0008673 111.5648 248.6479 14.63528693173247,14.63528693,0.0008673,LEO
52900,MIMAN,2022,98.54,-1.0,+,98.19,Active,0,LEO,Republic of Korea,South Korea,Unknown,Unknown,Unknown,1 52900U 22065G   25275.17053551  .00002205  00000+0  45525-3 0  9991,2 52900  98.1898  54.6057 0008795 110.2489 249.9658 14.61354489172752,14.61354489,0.0008795,LEO
52903,CMS-02 (GSAT 24),2022,1436.12,4181.0,+,0.01,Active,1,GSO,French Guiana,India,Government,Communications,Ariane,1 52903U 22067A   25274.08738466 -.00000163  00000+0  00000+0 0  9997,2 52903   0.0135 139.4536 0003462 121.6798 223.3921  1.00270361 12016,1.00270361,0.0003462,GEO
52904,MEASAT 3D,2022,1436.13,5648.0,+,0.05,Active,1,GSO,French Guiana,Malaysia,Commercial,Communications,Ariane,1 52904U 22067B   25275.08819943 -.00000241  00000+0  00000+0 0  9996,2 52904   0.0489 315.4024 0002277 284.5740 254.3432  1.00269228 12062,1.00269228,0.0002277,GEO
52907,YAOGAN-35 02A,2022,94.78,300.0,+,34.99,Active,1,LEO,PRC,China,Military,Earth Observation,Long March,1 52907U 22068A   25275.21250778  .00028304  00000+0  13017-2 0  9994,2 52907  34.9935 318.5449 0012361 265.6955  94.2346 15.19358541182565,15.19358541,0.0012361,LEO
52908,YAOGAN-35 02B,2022,93.9,300.0,+,35.0,Active,1,LEO,PRC,China,Military,Earth Observation,Long March,1 52908U 22068B   25275.21211617  .00075665  00000+0  22411-2 0  9994,2 52908  35.0022 296.6534 0004497 190.5027 169.5598 15.33677816182765,15.33677816,0.0004497,LEO
52912,GAOFEN-12 03,2022,97.33,3000.0,+,97.85,Active,1,LEO,PRC,China,Government,Earth Observation,Long March,1 52912U 22069A   25275.15412646  .00004115  00000+0  55702-3 0  9990,2 52912  97.8532 164.1423 0001648  85.5328 274.6072 14.79507246176452,14.79507246,0.0001648,LEO
52933,SES-22,2022,1436.14,3500.0,+,0.02,Active,1,GSO,USA,SES,Commercial,Communications,Falcon,1 52933U 22071A   25275.16468785  .00000000  00000+0  00000+0 0  9998,2 52933   0.0189 187.9602 0001058 352.8157 110.6536  1.00268219  4937,1.00268219,0.0001058,GEO
52935,DS-EO,2022,95.31,365.0,+,10.0,Active,1,LEO,India,Singapore,Military,Earth Observation,PSLV,1 52935U 22072A   25274.53142636  .00012408  00000+0  67687-3 0  9998,2 52935   9.9954 315.0234 0003799 155.3332 204.7065 15.10826920179285,15.1082692,0.0003799,LEO
52940,WFOV (USA 332),2022,1436.11,-1.0,+,3.04,Active,0,GSO,USA,USA,Unknown,Unknown,Unknown,1 52940U 22073A   25274.95101384 -.00000359  00000+0  00000+0 0  9991,2 52940   3.0409  81.8627 0001686  54.0610 336.6577  1.00270363 11783,1.00270363,0.0001686,GSO
52984,COSMOS 2557 [GLONASS-K],2022,675.73,974.0,+,64.45,Active,1,MEO,Russia,Russia/USSR,Commercial/Military,Navigation (Global or Regional Positioning),Soyuz,1 52984U 22075A   25275.01559378 -.00000021  00000+0  00000+0 0  9995,2 52984  64.4476 323.5749 0013237 271.5275  88.3954  2.13102151 25212,2.13102151,0.0013237,MEO
