OBJECT_NAME,OBJECT_ID,EPOCH,MEAN_MOTION,ECCENTRICITY,INCLINATION,RA_OF_ASC_NODE,ARG_OF_PERICENTER,MEAN_ANOMALY,EPHEMERIS_TYPE,CLASSIFICATION_TYPE,NORAD_CAT_ID,ELEMENT_SET_NO,REV_AT_EPOCH,BSTAR,MEAN_MOTION_DOT,MEAN_MOTION_DDOT
STARLINK-4261,2022-062AQ,2025-10-02T00:20:14.529120,15.08839944,0.0001132,53.2187,16.4742,83.6302,276.4819,0,U,52868,999,18197,0.00014241,1.979e-05,0.0
STARLINK-4266,2022-062AR,2025-10-01T23:55:04.055808,15.0884067,0.000139,53.2194,6.5243,91.8711,268.244,0,U,52869,999,18210,8.0569e-05,9.95e-06,0.0
STARLINK-4195,2022-062AS,2025-10-02T00:09:38.670048,15.08829684,0.0001758,53.2179,16.4809,85.4811,274.6381,0,U,52870,999,18197,-6.7492e-05,-1.362e-05,0.0
STARLINK-4207,2022-062AT,2025-10-01T23:39:10.731168,15.08834662,0.0001677,53.2199,6.5759,80.5346,279.5835,0,U,52871,999,18210,-4.3506e-05,-9.8e-06,0.0
STARLINK-4213,2022-062AU,2025-10-01T23:45:51.455232,15.08828751,0.0001643,53.2198,6.5228,107.3901,252.7271,0,U,52872,999,18210,-4.1187e-05,-9.43e-06,0.0
STARLINK-4211,2022-062AV,2025-10-01T23:28:34.574016,15.08839954,0.000144,53.219,6.6028,90.3261,269.7896,0,U,52873,999,18210,6.9739e-05,8.22e-06,0.0
STARLINK-4210,2022-062AW,2025-10-01T15:41:15.601920,15.96749144,0.00035952,53.2145,339.6287,8.6549,351.4543,0,U,52874,999,18245,0.0016826885,0.00732178,0.00024447679
STARLINK-4193,2022-062AX,2025-10-01T23:23:16.495008,15.0884268,0.00013,53.2185,6.624,99.2329,260.8811,0,U,52875,999,18210,8.6342e-05,1.087e-05,0.0
STARLINK-4200,2022-062AY,2025-10-01T23:33:52.006752,15.08808769,0.0001505,53.2172,6.5919,85.2139,274.9025,0,U,52876,999,18210,6.084e-05,6.8e-06,0.0
STARLINK-4214,2022-062AZ,2025-10-01T22:46:10.907040,15.08825872,0.0002146,53.2177,6.743,94.8949,265.2289,0,U,52877,999,18210,-0.00022819,-3.917e-05,0.0
STARLINK-4171,2022-062BA,2025-10-01T23:17:58.663104,15.08833412,0.0001542,53.2173,6.6391,84.3935,275.7233,0,U,52878,999,18210,7.9833e-05,9.83e-06,0.0
STARLINK-4139,2022-062BB,2025-10-01T12:57:57.747744,15.0883886,0.0001613,53.2192,8.5709,102.7805,257.3367,0,U,52879,999,18204,-1.0246e-05,-4.51e-06,0.0
STARLINK-4186,2022-062BC,2025-10-01T13:03:15.761088,15.08837808,0.00015402,53.2195,8.5527,100.115,260.0016,0,U,52880,999,18204,-2.8871154e-05,-7.47e-06,0.0
STARLINK-4181,2022-062BE,2025-10-01T23:02:00.472416,15.08830437,0.0001437,53.2187,6.2614,85.521,274.5946,0,U,52882,999,18211,-9.6134e-05,-1.817e-05,0.0
GLOBALSTAR M087,2022-064A,2025-10-02T00:32:43.123776,12.62289079,9.96e-05,51.9976,128.424,89.106,270.9921,0,U,52888,999,15853,9.342e-05,-8.7e-07,0.0
PVSAT,2022-065A,2025-10-01T23:55:59.503872,14.59273907,0.0010594,98.1925,52.1794,101.1873,259.0518,0,U,52894,999,17469,0.00024185,1.097e-05,0.0
KSLV-II DUMMY,2022-065B,2025-10-02T02:45:15.117120,14.58623752,0.0009436,98.1975,52.9019,115.667,244.5505,0,U,52895,999,17473,6.3293e-05,2.49e-06,0.0
STEP CUBE LAB-II,2022-065D,2025-10-02T05:27:08.560224,14.62634597,0.0009814,98.1872,55.6026,111.232,248.9931,0,U,52897,999,17378,0.00099822,5.034e-05,0.0
RANDEV,2022-065E,2025-10-02T03:44:47.733792,14.62960247,0.0009124,98.186,55.7751,112.1712,248.0458,0,U,52898,999,17351,0.00063367,3.2e-05,0.0
SNUGLITE-II,2022-065F,2025-10-02T03:49:32.648160,14.63528693,0.0008673,98.185,56.1429,111.5648,248.6479,0,U,52899,999,17324,0.00070158,3.593e-05,0.0
MIMAN,2022-065G,2025-10-02T04:05:34.268064,14.61354489,0.0008795,98.1898,54.6057,110.2489,249.9658,0,U,52900,999,17275,0.00045525,2.205e-05,0.0
CMS-02 (GSAT 24),2022-067A,2025-10-01T02:05:50.034624,1.00270361,0.0003462,0.0135,139.4536,121.6798,223.3921,0,U,52903,999,1201,0.0,-1.63e-06,0.0
MEASAT 3D,2022-067B,2025-10-02T02:07:00.430752,1.00269228,0.0002277,0.0489,315.4024,284.574,254.3432,0,U,52904,999,1206,0.0,-2.41e-06,0.0
YAOGAN-35 02A,2022-068A,2025-10-02T05:06:00.672192,15.19358541,0.0012361,34.9935,318.5449,265.6955,94.2346,0,U,52907,999,18256,0.0013017,0.00028304,0.0
YAOGAN-35 02B,2022-068B,2025-10-02T05:05:26.837088,15.33677816,0.0004497,35.0022,296.6534,190.5027,169.5598,0,U,52908,999,18276,0.0022411,0.00075665,0.0
GAOFEN-12 03,2022-069A,2025-10-02T03:41:56.526144,14.79507246,0.0001648,97.8532,164.1423,85.5328,274.6072,0,U,52912,999,17645,0.00055702,4.115e-05,0.0
SES-22,2022-071A,2025-10-02T03:57:09.030240,1.00268219,0.0001058,0.0189,187.9602,352.8157,110.6536,0,U,52933,999,493,0.0,0.0,0.0
DS-EO,2022-072A,2025-10-01T12:45:15.237504,15.1082692,0.00037993,9.9954,315.0234,155.3332,204.7065,0,U,52935,999,17928,0.000676873,0.00012408,0.0
WFOV (USA 332),2022-073A,2025-10-01T22:49:27.595776,1.00270363,0.0001686,3.0409,81.8627,54.061,336.6577,0,U,52940,999,1178,0.0,-3.59e-06,0.0
COSMOS 2557 [GLONASS-K],2022-075A,2025-10-02T00:22:27.302592,2.13102151,0.0013237,64.4476,323.5749,271.5275,88.3954,0,U,52984,999,2521,0.0,-2.1e-07,0.0
